{"type": "FeatureCollection", "features": [ {"type": "Feature", "properties": {"norad_id": 33905, "name": "COSMOS 2251 DEB", "group": "cosmos-2251-debris", "lat": -22.387803548811824, "lon": -34.773191400005885, "alt_km": 795.7833144617689, "timestamp": "2025-12-04T09:47:37.912644+00:00", "meta": {"OBJECT_NAME": "COSMOS 2251 DEB", "OBJECT_ID": "1993-036DJ", "EPOCH": "2025-12-04T00:10:51.722976", "MEAN_MOTION": 14.35332439, "ECCENTRICITY": 0.0059427, "INCLINATION": 73.8867, "RA_OF_ASC_NODE": 332.8065, "ARG_OF_PERICENTER": 223.9425, "MEAN_ANOMALY": 203.3639, "EPHEMERIS_TYPE": 0, "CLASSIFICATION_TYPE": "U", "NORAD_CAT_ID": 33905, "ELEMENT_SET_NO": 999, "REV_AT_EPOCH": 87562, "BSTAR": 0.0014408, "MEAN_MOTION_DOT": 4.189e-05, "MEAN_MOTION_DDOT": 0}, "tle": {"line1": "1 33905U 93036DJ  25338.00754309  .00004189  00000+0  14408-2 0  9990", "line2": "2 33905  73.8867 332.8065 0059427 223.9425 203.3639 14.35332439875623"}}, "geometry": {"type": "Point", "coordinates": [-34.773191400005885, -22.387803548811824]}}, {"type": "Feature", "properties": {"norad_id": 33906, "name": "COSMOS 2251 DEB", "group": "cosmos-2251-debris", "lat": -62.178010450681185, "lon": -55.55843546045632, "alt_km": 703.4815646240586, "timestamp": "2025-12-04T09:47:37.912654+00:00", "meta": {"OBJECT_NAME": "COSMOS 2251 DEB", "OBJECT_ID": "1993-036DK", "EPOCH": "2025-12-04T02:08:06.455040", "MEAN_MOTION": 14.56836715, "ECCENTRICITY": 0.0036329, "INCLINATION": 74.0306, "RA_OF_ASC_NODE": 337.9094, "ARG_OF_PERICENTER": 8.9007, "MEAN_ANOMALY": 51.6818, "EPHEMERIS_TYPE": 0, "CLASSIFICATION_TYPE": "U", "NORAD_CAT_ID": 33906, "ELEMENT_SET_NO": 999, "REV_AT_EPOCH": 87882, "BSTAR": 0.0042554, "MEAN_MOTION_DOT": 0.00019263, "MEAN_MOTION_DDOT": 0}, "tle": {"line1": "1 33906U 93036DK  25338.08896360  .00019263  00000+0  42554-2 0  9995", "line2": "2 33906  74.0306 337.9094 0036329   8.9007  51.6818 14.56836715878823"}}, "geometry": {"type": "Point", "coordinates": [-55.55843546045632, -62.178010450681185]}}, {"type": "Feature", "properties": {"norad_id": 33907, "name": "COSMOS 2251 DEB", "group": "cosmos-2251-debris", "lat": -19.345781561301887, "lon": 43.02968752653783, "alt_km": 843.2795418887808, "timestamp": "2025-12-04T09:47:37.912664+00:00", "meta": {"OBJECT_NAME": "COSMOS 2251 DEB", "OBJECT_ID": "1993-036DL", "EPOCH": "2025-12-02T16:29:31.533792", "MEAN_MOTION": 14.30354915, "ECCENTRICITY": 0.011318, "INCLINATION": 74.0705, "RA_OF_ASC_NODE": 51.9078, "ARG_OF_PERICENTER": 110.3545, "MEAN_ANOMALY": 12.7079, "EPHEMERIS_TYPE": 0, "CLASSIFICATION_TYPE": "U", "NORAD_CAT_ID": 33907, "ELEMENT_SET_NO": 999, "REV_AT_EPOCH": 86436, "BSTAR": 0.0022180325, "MEAN_MOTION_DOT": 6.159e-05, "MEAN_MOTION_DDOT": 0}, "tle": {"line1": "1 33907U 93036DL  25336.68717053  .00006159  00000+0  22180-2 0  9994", "line2": "2 33907  74.0705  51.9078 0113180 110.3545  12.7079 14.30354915864368"}}, "geometry": {"type": "Point", "coordinates": [43.02968752653783, -19.345781561301887]}}, {"type": "Feature", "properties": {"norad_id": 33908, "name": "COSMOS 2251 DEB", "group": "cosmos-2251-debris", "lat": -12.606418949654735, "lon": -143.16944544366913, "alt_km": 901.524600567137, "timestamp": "2025-12-04T09:47:37.912675+00:00", "meta": {"OBJECT_NAME": "COSMOS 2251 DEB", "OBJECT_ID": "1993-036DM", "EPOCH": "2025-12-04T03:01:56.640000", "MEAN_MOTION": 14.0724019, "ECCENTRICITY": 0.0223842, "INCLINATION": 73.8383, "RA_OF_ASC_NODE": 221.0486, "ARG_OF_PERICENTER": 246.0968, "MEAN_ANOMALY": 111.6576, "EPHEMERIS_TYPE": 0, "CLASSIFICATION_TYPE": "U", "NORAD_CAT_ID": 33908, "ELEMENT_SET_NO": 999, "REV_AT_EPOCH": 85352, "BSTAR": 0.0031098, "MEAN_MOTION_DOT": 6.53e-05, "MEAN_MOTION_DDOT": 0}, "tle": {"line1": "1 33908U 93036DM  25338.12635000  .00006530  00000+0  31098-2 0  9998", "line2": "2 33908  73.8383 221.0486 0223842 246.0968 111.6576 14.07240190853524"}}, "geometry": {"type": "Point", "coordinates": [-143.16944544366913, -12.606418949654735]}}, {"type": "Feature", "properties": {"norad_id": 33911, "name": "COSMOS 2251 DEB", "group": "cosmos-2251-debris", "lat": -68.04157791736742, "lon": 43.10226009911663, "alt_km": 660.3619758602081, "timestamp": "2025-12-04T09:47:37.912685+00:00", "meta": {"OBJECT_NAME": "COSMOS 2251 DEB", "OBJECT_ID": "1993-036DQ", "EPOCH": "2025-12-03T16:53:58.002720", "MEAN_MOTION": 14.74461944, "ECCENTRICITY": 0.0014555, "INCLINATION": 74.0898, "RA_OF_ASC_NODE": 179.4419, "ARG_OF_PERICENTER": 125.4327, "MEAN_ANOMALY": 354.0884, "EPHEMERIS_TYPE": 0, "CLASSIFICATION_TYPE": "U", "NORAD_CAT_ID": 33911, "ELEMENT_SET_NO": 999, "REV_AT_EPOCH": 88511, "BSTAR": 0.0025840978, "MEAN_MOTION_DOT": 0.00017211, "MEAN_MOTION_DDOT": 0}, "tle": {"line1": "1 33911U 93036DQ  25337.70414355  .00017211  00000+0  25841-2 0  9990", "line2": "2 33911  74.0898 179.4419 0014555 125.4327 354.0884 14.74461944885113"}}, "geometry": {"type": "Point", "coordinates": [43.10226009911663, -68.04157791736742]}}, {"type": "Feature", "properties": {"norad_id": 33912, "name": "COSMOS 2251 DEB", "group": "cosmos-2251-debris", "lat": 68.21401048833759, "lon": -20.330617800428012, "alt_km": 720.9684069454734, "timestamp": "2025-12-04T09:47:37.912695+00:00", "meta": {"OBJECT_NAME": "COSMOS 2251 DEB", "OBJECT_ID": "1993-036DR", "EPOCH": "2025-12-04T01:36:32.158368", "MEAN_MOTION": 14.51818671, "ECCENTRICITY": 0.0011629, "INCLINATION": 74.0339, "RA_OF_ASC_NODE": 206.0606, "ARG_OF_PERICENTER": 284.7882, "MEAN_ANOMALY": 198.4658, "EPHEMERIS_TYPE": 0, "CLASSIFICATION_TYPE": "U", "NORAD_CAT_ID": 33912, "ELEMENT_SET_NO": 999, "REV_AT_EPOCH": 88307, "BSTAR": 0.0014567, "MEAN_MOTION_DOT": 5.844e-05, "MEAN_MOTION_DDOT": 0}, "tle": {"line1": "1 33912U 93036DR  25338.06703887  .00005844  00000+0  14567-2 0  9994", "line2": "2 33912  74.0339 206.0606 0011629 284.7882 198.4658 14.51818671883073"}}, "geometry": {"type": "Point", "coordinates": [-20.330617800428012, 68.21401048833759]}}, {"type": "Feature", "properties": {"norad_id": 33913, "name": "COSMOS 2251 DEB", "group": "cosmos-2251-debris", "lat": -62.7651727807886, "lon": 165.45742126198937, "alt_km": 703.9803876325032, "timestamp": "2025-12-04T09:47:37.912704+00:00", "meta": {"OBJECT_NAME": "COSMOS 2251 DEB", "OBJECT_ID": "1993-036DS", "EPOCH": "2025-12-04T00:42:37.560096", "MEAN_MOTION": 14.48432543, "ECCENTRICITY": 0.0048148, "INCLINATION": 74.0336, "RA_OF_ASC_NODE": 199.9626, "ARG_OF_PERICENTER": 304.1333, "MEAN_ANOMALY": 175.6619, "EPHEMERIS_TYPE": 0, "CLASSIFICATION_TYPE": "U", "NORAD_CAT_ID": 33913, "ELEMENT_SET_NO": 999, "REV_AT_EPOCH": 88331, "BSTAR": 0.0010646, "MEAN_MOTION_DOT": 4.022e-05, "MEAN_MOTION_DDOT": 0}, "tle": {"line1": "1 33913U 93036DS  25338.02960139  .00004022  00000+0  10646-2 0  9997", "line2": "2 33913  74.0336 199.9626 0048148 304.1333 175.6619 14.48432543883314"}}, "geometry": {"type": "Point", "coordinates": [165.45742126198937, -62.7651727807886]}}, {"type": "Feature", "properties": {"norad_id": 33914, "name": "COSMOS 2251 DEB", "group": "cosmos-2251-debris", "lat": 26.294399367581878, "lon": 36.92648385404672, "alt_km": 1047.5584888645271, "timestamp": "2025-12-04T09:47:37.912715+00:00", "meta": {"OBJECT_NAME": "COSMOS 2251 DEB", "OBJECT_ID": "1993-036DT", "EPOCH": "2025-12-03T14:57:06.813792", "MEAN_MOTION": 13.71969866, "ECCENTRICITY": 0.03019664, "INCLINATION": 74.0917, "RA_OF_ASC_NODE": 30.119, "ARG_OF_PERICENTER": 135.3474, "MEAN_ANOMALY": 339.3983, "EPHEMERIS_TYPE": 0, "CLASSIFICATION_TYPE": "U", "NORAD_CAT_ID": 33914, "ELEMENT_SET_NO": 999, "REV_AT_EPOCH": 83956, "BSTAR": 0.00087236034, "MEAN_MOTION_DOT": 1.076e-05, "MEAN_MOTION_DDOT": 0}, "tle": {"line1": "1 33914U 93036DT  25337.62299553  .00001076  00000+0  87236-3 0  9994", "line2": "2 33914  74.0917  30.1190 0301966 135.3474 339.3983 13.71969866839561"}}, "geometry": {"type": "Point", "coordinates": [36.92648385404672, 26.294399367581878]}}, {"type": "Feature", "properties": {"norad_id": 33915, "name": "COSMOS 2251 DEB", "group": "cosmos-2251-debris", "lat": 56.76659434335129, "lon": 75.26484553971294, "alt_km": 759.9843583116481, "timestamp": "2025-12-04T09:47:37.912724+00:00", "meta": {"OBJECT_NAME": "COSMOS 2251 DEB", "OBJECT_ID": "1993-036DU", "EPOCH": "2025-12-03T15:39:59.054976", "MEAN_MOTION": 14.35044518, "ECCENTRICITY": 0.01049351, "INCLINATION": 74.045, "RA_OF_ASC_NODE": 50.7598, "ARG_OF_PERICENTER": 145.6941, "MEAN_ANOMALY": 335.518, "EPHEMERIS_TYPE": 0, "CLASSIFICATION_TYPE": "U", "NORAD_CAT_ID": 33915, "ELEMENT_SET_NO": 999, "REV_AT_EPOCH": 87627, "BSTAR": 0.00076862808, "MEAN_MOTION_DOT": 2.306e-05, "MEAN_MOTION_DDOT": 0}, "tle": {"line1": "1 33915U 93036DU  25337.65276684  .00002306  00000+0  76863-3 0  9999", "line2": "2 33915  74.0450  50.7598 0104935 145.6941 335.5180 14.35044518876279"}}, "geometry": {"type": "Point", "coordinates": [75.26484553971294, 56.76659434335129]}}, {"type": "Feature", "properties": {"norad_id": 33916, "name": "COSMOS 2251 DEB", "group": "cosmos-2251-debris", "lat": 36.57800625297392, "lon": 66.52806093485468, "alt_km": 1238.2258504169276, "timestamp": "2025-12-04T09:47:37.912734+00:00", "meta": {"OBJECT_NAME": "COSMOS 2251 DEB", "OBJECT_ID": "1993-036DV", "EPOCH": "2025-12-03T16:42:08.827200", "MEAN_MOTION": 13.68595802, "ECCENTRICITY": 0.03255035, "INCLINATION": 74.0531, "RA_OF_ASC_NODE": 55.448, "ARG_OF_PERICENTER": 229.5107, "MEAN_ANOMALY": 260.8619, "EPHEMERIS_TYPE": 0, "CLASSIFICATION_TYPE": "U", "NORAD_CAT_ID": 33916, "ELEMENT_SET_NO": 999, "REV_AT_EPOCH": 83767, "BSTAR": 0.00082469932, "MEAN_MOTION_DOT": 1.001e-05, "MEAN_MOTION_DDOT": 0}, "tle": {"line1": "1 33916U 93036DV  25337.69593550  .00001001  00000+0  82470-3 0  9990", "line2": "2 33916  74.0531  55.4480 0325503 229.5107 260.8619 13.68595802837674"}}, "geometry": {"type": "Point", "coordinates": [66.52806093485468, 36.57800625297392]}}]}